NORAD_CAT_ID,OBJECT_NAME,OBJECT_TYPE,EPOCH,MEAN_MOTION,ECCENTRICITY,INCLINATION,RA_OF_ASC_NODE,ARG_OF_PERICENTER,MEAN_ANOMALY,BSTAR,MEAN_MOTION_DOT,MEAN_MOTION_DDOT,TLE_LINE0,TLE_LINE1,TLE_LINE2,SEMIMAJOR_AXIS,PERIOD,APOGEE,PERIGEE,DECAYED
49431.0,STARLINK-3153,PAYLOAD,2022-01-14 14:00:01,15.26672414,0.00017,53.2177,191.499,42.7493,257.1147,-0.026727,-0.00659568,0.0,0 STARLINK-3153,1 49431U 21104Z   22014.58334491 -.00659568  00000-0 -26727-1 0  9991,2 49431  53.2177 191.4990 0001700  42.7493 257.1147 15.26672414  3657,6863.905,94.323,486.937,484.603,0.0
49431.0,STARLINK-3153,PAYLOAD,2022-01-14 22:00:00,15.26203795,0.0001738,53.2175,189.9626,38.4162,294.1852,-0.026963,-0.00656231,0.0,0 STARLINK-3153,1 49431U 21104Z   22014.91667824 -.00656231  00000-0 -26963-1 0  9993,2 49431  53.2175 189.9626 0001738  38.4162 294.1852 15.26203795 11025,6865.31,94.352,488.36800000000005,485.982,0.0
49431.0,STARLINK-3153,PAYLOAD,2022-01-15 14:00:01,15.25273526,0.0001645,53.2177,186.8889,39.6995,356.7585,-0.027963,-0.00661263,0.0,0 STARLINK-3153,1 49431U 21104Z   22015.58335648 -.00661263  00000-0 -27963-1 0  9995,2 49431  53.2177 186.8889 0001645  39.6995 356.7585 15.25273526  3654,6868.101,94.409,491.096,488.836,0.0
49431.0,STARLINK-3153,PAYLOAD,2022-01-15 22:00:01,15.24802985,0.000154,53.2174,185.3556,45.8349,21.6795,-0.028061,-0.00654712,0.0,0 STARLINK-3153,1 49431U 21104Z   22015.91668981 -.00654712  00000-0 -28061-1 0  9992,2 49431  53.2174 185.3556 0001540  45.8349  21.6795 15.24802985 11186,6869.514,94.438,492.437,490.321,0.0
49431.0,STARLINK-3153,PAYLOAD,2022-01-16 14:00:01,15.23872819,0.0001839,53.2176,182.2885,38.9636,88.9165,-0.0291,-0.00659887,0.0,0 STARLINK-3153,1 49431U 21104Z   22016.58334491 -.00659887  00000-0 -29100-1 0  9995,2 49431  53.2176 182.2885 0001839  38.9636  88.9165 15.23872819  3665,6872.309,94.496,495.43800000000016,492.91,0.0
49431.0,STARLINK-3153,PAYLOAD,2022-01-16 22:00:00,15.23401794,0.0001611,53.2173,180.7584,49.9074,107.3473,-0.029136,-0.00652025,0.0,0 STARLINK-3153,1 49431U 21104Z   22016.91667824 -.00652025  00000-0 -29136-1 0  9997,2 49431  53.2173 180.7584 0001611  49.9074 107.3473 15.23401794  3654,6873.726,94.525,496.698,494.483,0.0
49431.0,STARLINK-3153,PAYLOAD,2022-01-17 00:00:00,15.23253313,0.0001665999999999,53.2164,180.3764,49.71,204.8155,-0.027143,-0.00607848,0.0,0 STARLINK-3153,1 49431U 21104Z   22017.00001157 -.00607848  00000-0 -27143-1 0  9998,2 49431  53.2164 180.3764 0001666  49.7100 204.8155 15.23253313 11345,6874.172,94.535,497.1830000000001,494.892,0.0
49431.0,STARLINK-3153,PAYLOAD,2022-01-17 14:00:01,15.22471789,0.00018,53.2176,177.69799999999995,44.6316,169.6882,-0.030217,-0.00657355,0.0,0 STARLINK-3153,1 49431U 21104Z   22017.58334491 -.00657355  00000-0 -30217-1 0  9995,2 49431  53.2176 177.6980 0001800  44.6316 169.6882 15.22471789 11433,6876.525,94.583,499.627,497.152,0.0
49431.0,STARLINK-3153,PAYLOAD,2022-01-17 22:00:00,15.22003228,0.0001561999999999,53.2172,176.171,55.5069,186.5047,-0.030445,-0.00653441,0.0,0 STARLINK-3153,1 49431U 21104Z   22017.91667824 -.00653441  00000-0 -30445-1 0  9996,2 49431  53.2172 176.1710 0001562  55.5069 186.5047 15.22003228  3649,6877.936,94.612,500.875,498.727,0.0
49431.0,STARLINK-3153,PAYLOAD,2022-01-18 14:00:01,15.21072396,0.000172,53.2175,173.1173,44.0633,251.65,-0.031503,-0.00657512,0.0,0 STARLINK-3153,1 49431U 21104Z   22018.58334491 -.00657512  00000-0 -31503-1 0  9990,2 49431  53.2175 173.1173 0001720  44.0633 251.6500 15.21072396  3647,6880.7419999999975,94.67,503.79,501.423,0.0
49431.0,STARLINK-3153,PAYLOAD,2022-01-18 22:00:00,15.20605421,0.0001422,53.2172,171.5933,56.5612,265.1615,-0.031873,-0.0065622,0.0,0 STARLINK-3153,1 49431U 21104Z   22018.91667824 -.00656220  00000-0 -31873-1 0  9991,2 49431  53.2172 171.5933 0001422  56.5612 265.1615 15.20605421 11639,6882.15,94.699,504.994,503.037,0.0
49431.0,STARLINK-3153,PAYLOAD,2022-01-19 14:00:01,15.19602111,0.0001402,53.2169,168.5471,61.3993,310.6974,-0.027735,-0.00560701,0.0,0 STARLINK-3153,1 49431U 21104Z   22019.58334491 -.00560701  00000-0 -27735-1 0  9996,2 49431  53.2169 168.5471 0001402  61.3993 310.6974 15.19602111  3616,6885.179,94.762,508.01,506.079,0.0
49431.0,STARLINK-3153,PAYLOAD,2022-01-19 22:00:00,15.19205929,0.0001393,53.2172,167.0256,53.5674,342.8213,-0.033221,-0.0066363,0.0,0 STARLINK-3153,1 49431U 21104Z   22019.91667824 -.00663630  00000-0 -33221-1 0  9994,2 49431  53.2172 167.0256 0001393  53.5674 342.8213 15.19205929  3634,6886.376,94.786,509.2,507.282,0.0
49431.0,STARLINK-3153,PAYLOAD,2022-01-20 06:00:00,15.18737973,0.0001493,53.2174,165.5035,47.037,13.1211,-0.033611,-0.00662431,0.0,0 STARLINK-3153,1 49431U 21104Z   22020.25001157 -.00662431  00000-0 -33611-1 0  9995,2 49431  53.2174 165.5035 0001493  47.0370  13.1211 15.18737973 11842,6887.791,94.816,510.684,508.627,0.0
49431.0,STARLINK-3153,PAYLOAD,2022-01-20 14:00:01,15.1813437,0.0001474,53.217,163.9864,63.2911,20.1516,-0.024567,-0.00475955,0.0,0 STARLINK-3153,1 49431U 21104Z   22020.58334491 -.00475955  00000-0 -24567-1 0  9994,2 49431  53.2170 163.9864 0001474  63.2911  20.1516 15.18134370  3614,6889.616,94.853,512.497,510.466,0.0
49431.0,STARLINK-3153,PAYLOAD,2022-01-20 22:00:00,15.17805683,0.0001425,53.2172,162.4677,56.8562,49.1532,-0.034556,-0.00662869,0.0,0 STARLINK-3153,1 49431U 21104Z   22020.91667824 -.00662869  00000-0 -34556-1 0  9991,2 49431  53.2172 162.4677 0001425  56.8562  49.1532 15.17805683  3629,6890.611,94.874,513.4580000000002,511.494,0.0
49431.0,STARLINK-3153,PAYLOAD,2022-01-21 08:00:01,15.1722364,0.0001615,53.2173,160.5696,54.5652,168.9643,-0.035304,-0.00665767,0.0,0 STARLINK-3153,1 49431U 21104Z   22021.33334491 -.00665767  00000-0 -35304-1 0  9991,2 49431  53.2173 160.5696 0001615  54.5652 168.9643 15.17223640 12008,6892.373000000001,94.91,515.351,513.125,0.0
49431.0,STARLINK-3153,PAYLOAD,2022-01-21 14:00:01,15.16768555,0.000174,53.2168,159.435,57.7116,91.9643,-0.02769,-0.00518288,0.0,0 STARLINK-3153,1 49431U 21104Z   22021.58334491 -.00518288  00000-0 -27690-1 0  9992,2 49431  53.2168 159.4350 0001740  57.7116  91.9643 15.16768555  3615,6893.752,94.939,516.816,514.4169999999998,0.0
49431.0,STARLINK-3153,PAYLOAD,2022-01-21 22:00:00,15.16406314,0.000157,53.2172,157.9195,54.4492,116.1348,-0.036031,-0.00663827,0.0,0 STARLINK-3153,1 49431U 21104Z   22021.91667824 -.00663827  00000-0 -36031-1 0  9997,2 49431  53.2172 157.9195 0001570  54.4492 116.1348 15.16406314  3638,6894.849,94.961,517.797,515.632,0.0
49431.0,STARLINK-3153,PAYLOAD,2022-01-22 14:00:01,15.15363206,0.0001761,53.2167,154.8936,61.3417,149.5464,-0.02824,-0.0050835,0.0,0 STARLINK-3153,1 49431U 21104Z   22022.58334491 -.00508350  00000-0 -28240-1 0  9994,2 49431  53.2167 154.8936 0001761  61.3417 149.5464 15.15363206 12198,6898.013000000001,95.027,521.0930000000002,518.663,0.0
49431.0,STARLINK-3153,PAYLOAD,2022-01-22 22:00:00,15.150077599999998,0.000153,53.2172,153.3811,59.775,170.3376,-0.037641,-0.00666175,0.0,0 STARLINK-3153,1 49431U 21104Z   22022.91667824 -.00666175  00000-0 -37641-1 0  9995,2 49431  53.2172 153.3811 0001530  59.7750 170.3376 15.15007760 12245,6899.092,95.049,522.013,519.901,0.0
49431.0,STARLINK-3153,PAYLOAD,2022-01-23 14:00:01,15.14072043,0.0001842,53.2174,150.361,43.0067,223.9896,-0.038395,-0.00662021,0.0,0 STARLINK-3153,1 49431U 21104Z   22023.58334491 -.00662021  00000-0 -38395-1 0  9993,2 49431  53.2174 150.3610 0001842  43.0067 223.9896 15.14072043  3634,6901.934,95.108,525.071,522.528,0.0
49431.0,STARLINK-3153,PAYLOAD,2022-01-23 22:00:00,15.13608923,0.0001464,53.2172,148.8525,58.7073,225.8882,-0.039271,-0.00667888,0.0,0 STARLINK-3153,1 49431U 21104Z   22023.91667824 -.00667888  00000-0 -39271-1 0  9999,2 49431  53.2172 148.8525 0001464  58.7073 225.8882 15.13608923  3636,6903.342,95.137,526.2180000000002,524.196,0.0
49431.0,STARLINK-3153,PAYLOAD,2022-01-24 06:00:02,15.13138927,0.0001557,53.2173,147.3435,51.8382,249.8625,-0.039448,-0.00662438,0.0,0 STARLINK-3153,1 49431U 21104Z   22024.25002315 -.00662438  00000-0 -39448-1 0  9997,2 49431  53.2173 147.3435 0001557  51.8382 249.8625 15.13138927 12443,6904.771,95.166,527.711,525.561,0.0
49431.0,STARLINK-3153,PAYLOAD,2022-01-24 14:00:01,15.12673272,0.0001754,53.2173,145.839,42.3746,275.7406,-0.040036,-0.00663514,0.0,0 STARLINK-3153,1 49431U 21104Z   22024.58334491 -.00663514  00000-0 -40036-1 0  9997,2 49431  53.2173 145.8390 0001754  42.3746 275.7406 15.12673272  3625,6906.188,95.196,529.265,526.842,0.0
49431.0,STARLINK-3153,PAYLOAD,2022-01-24 22:00:00,15.12209186,0.0001416999999999,53.2172,144.3336,57.6793,276.3537,-0.04085,-0.00667918,0.0,0 STARLINK-3153,1 49431U 21104Z   22024.91667824 -.00667918  00000-0 -40850-1 0  9999,2 49431  53.2172 144.3336 0001417  57.6793 276.3537 15.12209186  3626,6907.601,95.225,530.445,528.487,0.0
49431.0,STARLINK-3153,PAYLOAD,2022-01-25 08:00:01,15.11623069,0.0001665,53.2174,142.4524,45.6316,37.5128,-0.041138,-0.00662102,0.0,0 STARLINK-3153,1 49431U 21104Z   22025.33334491 -.00662102  00000-0 -41138-1 0  9997,2 49431  53.2174 142.4524 0001665  45.6316  37.5128 15.11623069 12610,6909.387,95.262,532.4019999999998,530.101,0.0
49431.0,STARLINK-3153,PAYLOAD,2022-01-25 14:00:01,15.11274729,0.0001876,53.2173,141.3268,36.797,327.3914,-0.041772,-0.0066558999999999,0.0,0 STARLINK-3153,1 49431U 21104Z   22025.58334491 -.00665590  00000-0 -41772-1 0  9992,2 49431  53.2173 141.3268 0001876  36.7970 327.3914 15.11274729  3611,6910.448,95.284,533.61,531.0169999999998,0.0
49431.0,STARLINK-3153,PAYLOAD,2022-01-25 22:00:00,15.10808773,0.0001440999999999,53.2172,139.8245,53.1109,325.3142,-0.042398,-0.00666738,0.0,0 STARLINK-3153,1 49431U 21104Z   22025.91667824 -.00666738  00000-0 -42398-1 0  9998,2 49431  53.2172 139.8245 0001441  53.1109 325.3142 15.10808773  3647,6911.869000000002,95.313,534.73,532.738,0.0
